[{"OBJECT_NAME":"ONEWEB-0146","OBJECT_ID":"2020-100AL","EPOCH":"2026-03-09T20:15:52.534656","MEAN_MOTION":13.12441931,"ECCENTRICITY":0.00015161,"INCLINATION":87.9004,"RA_OF_ASC_NODE":10.3764,"ARG_OF_PERICENTER":83.4019,"MEAN_ANOMALY":276.7283,"EPHEMERIS_TYPE":0,"CLASSIFICATION_TYPE":"U","NORAD_CAT_ID":47292,"ELEMENT_SET_NO":999,"REV_AT_EPOCH":25164,"BSTAR":-3.9041849e-5,"MEAN_MOTION_DOT":-1.0e-8,"MEAN_MOTION_DDOT":0},{"OBJECT_NAME":"BREEZE-M DEB","OBJECT_ID":"2006-006CU","EPOCH":"2026-03-07T22:14:14.143776","MEAN_MOTION":7.29966514,"ECCENTRICITY":0.39604911,"INCLINATION":51.5588,"RA_OF_ASC_NODE":237.796,"ARG_OF_PERICENTER":70.3802,"MEAN_ANOMALY":327.6093,"EPHEMERIS_TYPE":0,"CLASSIFICATION_TYPE":"U","NORAD_CAT_ID":36962,"ELEMENT_SET_NO":999,"REV_AT_EPOCH":25364,"BSTAR":0.027340128,"MEAN_MOTION_DOT":0.00073308,"MEAN_MOTION_DDOT":0}]
